start=new Date('2022-05-26T00:00:00.000Z').valueOf();
sats=[{"SEMIMAJOR_AXIS":"6830.627","SITE":"AFETR","OBJECT_ID":"2022-029AL","RA_OF_ASC_NODE":"172.9308","PERIOD":"93.638","MEAN_ANOMALY":"135.7697","BSTAR":"-0.02053300000000","COUNTRY_CODE":"US","ELEMENT_SET_NO":"999","OBJECT_NAME":"STARLINK-3726","DECAY_DATE":null,"INCLINATION":"53.2173","PERIAPSIS":"451.293","OBJECT_TYPE":"PAYLOAD","MEAN_MOTION":"15.37842727","ECCENTRICITY":"0.00017550","ARG_OF_PERICENTER":"40.2121","MEAN_MOTION_DOT":"-0.00716227","LAUNCH_DATE":"2022-03-19","TLE_LINE2":"2 52122  53.2173 172.9308 0001755  40.2121 135.7697 15.37842727  1301","FILE":"3464394","EPOCH":"2022-05-25T22:00:00.999936","MEAN_MOTION_DDOT":"0.0000000000000","CLASSIFICATION_TYPE":"U","MEAN_ELEMENT_THEORY":"SGP4","REF_FRAME":"TEME","REV_AT_EPOCH":"130","EPHEMERIS_TYPE":"0","RCS_SIZE":"LARGE","APOAPSIS":"453.691","TLE_LINE1":"1 52122U 22029AL  22145.91667824 -.00716227  00000-0 -20533-1 0  9995","CENTER_NAME":"EARTH","GP_ID":"204541059","TIME_SYSTEM":"UTC","NORAD_CAT_ID":"52122"},{"OBJECT_ID":"2022-029AM","SITE":"AFETR","SEMIMAJOR_AXIS":"6747.085","PERIOD":"91.925","RA_OF_ASC_NODE":"169.0036","MEAN_ANOMALY":"180.8726","COUNTRY_CODE":"US","BSTAR":"-0.00732060000000","OBJECT_NAME":"STARLINK-3725","DECAY_DATE":null,"ELEMENT_SET_NO":"999","OBJECT_TYPE":"PAYLOAD","INCLINATION":"53.2174","PERIAPSIS":"368.131","ARG_OF_PERICENTER":"67.8185","ECCENTRICITY":"0.00012130","MEAN_MOTION_DOT":"-0.00713872","MEAN_MOTION":"15.66493202","LAUNCH_DATE":"2022-03-19","TLE_LINE2":"2 52123  53.2174 169.0036 0001213  67.8185 180.8726 15.66493202  1308","FILE":"3464394","EPOCH":"2022-05-25T22:00:00.999936","MEAN_ELEMENT_THEORY":"SGP4","REF_FRAME":"TEME","MEAN_MOTION_DDOT":"0.0000000000000","CLASSIFICATION_TYPE":"U","EPHEMERIS_TYPE":"0","RCS_SIZE":"LARGE","APOAPSIS":"369.768","REV_AT_EPOCH":"130","TLE_LINE1":"1 52123U 22029AM  22145.91667824 -.00713872  00000-0 -73206-2 0  9995","CENTER_NAME":"EARTH","GP_ID":"204540830","TIME_SYSTEM":"UTC","NORAD_CAT_ID":"52123"},{"NORAD_CAT_ID":"52124","TIME_SYSTEM":"UTC","GP_ID":"204514113","CENTER_NAME":"EARTH","TLE_LINE1":"1 52124U 22029AN  22145.91667824 -.00716068  00000-0 -20263-1 0  9990","RCS_SIZE":"LARGE","APOAPSIS":"452.530","EPHEMERIS_TYPE":"0","REV_AT_EPOCH":"1185","REF_FRAME":"TEME","MEAN_ELEMENT_THEORY":"SGP4","CLASSIFICATION_TYPE":"U","MEAN_MOTION_DDOT":"0.0000000000000","EPOCH":"2022-05-25T22:00:00.999936","FILE":"3464310","TLE_LINE2":"2 52124  53.2173 172.9473 0001775  39.2511 149.4541 15.38239426 11857","LAUNCH_DATE":"2022-03-19","MEAN_MOTION_DOT":"-0.00716068","ECCENTRICITY":"0.00017750","ARG_OF_PERICENTER":"39.2511","MEAN_MOTION":"15.38239426","OBJECT_TYPE":"PAYLOAD","PERIAPSIS":"450.105","INCLINATION":"53.2173","DECAY_DATE":null,"OBJECT_NAME":"STARLINK-3684","ELEMENT_SET_NO":"999","COUNTRY_CODE":"US","BSTAR":"-0.02026300000000","PERIOD":"93.614","MEAN_ANOMALY":"149.4541","RA_OF_ASC_NODE":"172.9473","OBJECT_ID":"2022-029AN","SITE":"AFETR","SEMIMAJOR_AXIS":"6829.452"},{"NORAD_CAT_ID":"52125","TIME_SYSTEM":"UTC","GP_ID":"204541364","CENTER_NAME":"EARTH","TLE_LINE1":"1 52125U 22029AP  22145.91667824 -.00713761  00000-0 -73180-2 0  9995","REV_AT_EPOCH":"130","APOAPSIS":"369.737","RCS_SIZE":"LARGE","EPHEMERIS_TYPE":"0","CLASSIFICATION_TYPE":"U","MEAN_MOTION_DDOT":"0.0000000000000","REF_FRAME":"TEME","MEAN_ELEMENT_THEORY":"SGP4","EPOCH":"2022-05-25T22:00:00.999936","FILE":"3464394","TLE_LINE2":"2 52125  53.2174 169.0067 0001187  71.1821 178.1552 15.66497944  1303","LAUNCH_DATE":"2022-03-19","MEAN_MOTION":"15.66497944","MEAN_MOTION_DOT":"-0.00713761","ECCENTRICITY":"0.00011870","ARG_OF_PERICENTER":"71.1821","PERIAPSIS":"368.135","INCLINATION":"53.2174","OBJECT_TYPE":"PAYLOAD","ELEMENT_SET_NO":"999","DECAY_DATE":null,"OBJECT_NAME":"STARLINK-3727","BSTAR":"-0.00731800000000","COUNTRY_CODE":"US","RA_OF_ASC_NODE":"169.0067","PERIOD":"91.925","MEAN_ANOMALY":"178.1552","SEMIMAJOR_AXIS":"6747.071","SITE":"AFETR","OBJECT_ID":"2022-029AP"},{"CENTER_NAME":"EARTH","TLE_LINE1":"1 52126U 22029AQ  22145.91667824 -.00713945  00000-0 -73227-2 0  9992","GP_ID":"204540723","TIME_SYSTEM":"UTC","NORAD_CAT_ID":"52126","FILE":"3464394","EPOCH":"2022-05-25T22:00:00.999936","CLASSIFICATION_TYPE":"U","MEAN_MOTION_DDOT":"0.0000000000000","REF_FRAME":"TEME","MEAN_ELEMENT_THEORY":"SGP4","REV_AT_EPOCH":"130","APOAPSIS":"369.820","RCS_SIZE":"LARGE","EPHEMERIS_TYPE":"0","ELEMENT_SET_NO":"999","DECAY_DATE":null,"OBJECT_NAME":"STARLINK-3732","PERIAPSIS":"368.107","INCLINATION":"53.2174","OBJECT_TYPE":"PAYLOAD","MEAN_MOTION":"15.66488449","MEAN_MOTION_DOT":"-0.00713945","ARG_OF_PERICENTER":"59.4828","ECCENTRICITY":"0.00012690","TLE_LINE2":"2 52126  53.2174 169.0008 0001269  59.4828 188.5620 15.66488449  1307","LAUNCH_DATE":"2022-03-19","SEMIMAJOR_AXIS":"6747.098","SITE":"AFETR","OBJECT_ID":"2022-029AQ","PERIOD":"91.925","RA_OF_ASC_NODE":"169.0008","MEAN_ANOMALY":"188.5620","BSTAR":"-0.00732270000000","COUNTRY_CODE":"US"},{"FILE":"3464394","EPOCH":"2022-05-25T22:00:00.999936","REF_FRAME":"TEME","MEAN_ELEMENT_THEORY":"SGP4","CLASSIFICATION_TYPE":"U","MEAN_MOTION_DDOT":"0.0000000000000","RCS_SIZE":"LARGE","APOAPSIS":"369.754","EPHEMERIS_TYPE":"0","REV_AT_EPOCH":"130","CENTER_NAME":"EARTH","TLE_LINE1":"1 52127U 22029AR  22145.91667824 -.00713867  00000-0 -73188-2 0  9992","GP_ID":"204541166","TIME_SYSTEM":"UTC","NORAD_CAT_ID":"52127","SITE":"AFETR","OBJECT_ID":"2022-029AR","SEMIMAJOR_AXIS":"6747.068","RA_OF_ASC_NODE":"169.0087","PERIOD":"91.925","MEAN_ANOMALY":"183.7097","COUNTRY_CODE":"US","BSTAR":"-0.00731880000000","DECAY_DATE":null,"OBJECT_NAME":"STARLINK-3715","ELEMENT_SET_NO":"999","OBJECT_TYPE":"PAYLOAD","PERIAPSIS":"368.112","INCLINATION":"53.2174","MEAN_MOTION_DOT":"-0.00713867","ARG_OF_PERICENTER":"66.7870","ECCENTRICITY":"0.00012170","MEAN_MOTION":"15.66499018","TLE_LINE2":"2 52127  53.2174 169.0087 0001217  66.7870 183.7097 15.66499018  1305","LAUNCH_DATE":"2022-03-19"},{"PERIOD":"91.924","MEAN_ANOMALY":"181.7416","RA_OF_ASC_NODE":"169.0149","COUNTRY_CODE":"US","BSTAR":"-0.00731610000000","SITE":"AFETR","OBJECT_ID":"2022-029AT","SEMIMAJOR_AXIS":"6747.041","MEAN_MOTION_DOT":"-0.00713873","ARG_OF_PERICENTER":"70.0472","ECCENTRICITY":"0.00011790","MEAN_MOTION":"15.66508607","TLE_LINE2":"2 52129  53.2174 169.0149 0001179  70.0472 181.7416 15.66508607  1307","LAUNCH_DATE":"2022-03-19","DECAY_DATE":null,"OBJECT_NAME":"STARLINK-3661","ELEMENT_SET_NO":"999","OBJECT_TYPE":"PAYLOAD","PERIAPSIS":"368.110","INCLINATION":"53.2174","REF_FRAME":"TEME","MEAN_ELEMENT_THEORY":"SGP4","CLASSIFICATION_TYPE":"U","MEAN_MOTION_DDOT":"0.0000000000000","RCS_SIZE":"LARGE","APOAPSIS":"369.701","EPHEMERIS_TYPE":"0","REV_AT_EPOCH":"130","FILE":"3464394","EPOCH":"2022-05-25T22:00:00.999936","TIME_SYSTEM":"UTC","NORAD_CAT_ID":"52129","CENTER_NAME":"EARTH","TLE_LINE1":"1 52129U 22029AT  22145.91667824 -.00713873  00000-0 -73161-2 0  9992","GP_ID":"204540616"},{"NORAD_CAT_ID":"52131","TIME_SYSTEM":"UTC","GP_ID":"204541274","TLE_LINE1":"1 52131U 22029AV  22145.91667824 -.00713936  00000-0 -73152-2 0  9995","CENTER_NAME":"EARTH","REV_AT_EPOCH":"130","EPHEMERIS_TYPE":"0","APOAPSIS":"369.739","RCS_SIZE":"LARGE","MEAN_MOTION_DDOT":"0.0000000000000","CLASSIFICATION_TYPE":"U","MEAN_ELEMENT_THEORY":"SGP4","REF_FRAME":"TEME","EPOCH":"2022-05-25T22:00:00.999936","FILE":"3464394","TLE_LINE2":"2 52131  53.2174 169.0179 0001256  59.3796 193.0552 15.66513434  1309","LAUNCH_DATE":"2022-03-19","MEAN_MOTION":"15.66513434","ARG_OF_PERICENTER":"59.3796","ECCENTRICITY":"0.00012560","MEAN_MOTION_DOT":"-0.00713936","INCLINATION":"53.2174","PERIAPSIS":"368.044","OBJECT_TYPE":"PAYLOAD","ELEMENT_SET_NO":"999","OBJECT_NAME":"STARLINK-3711","DECAY_DATE":null,"BSTAR":"-0.00731520000000","COUNTRY_CODE":"US","MEAN_ANOMALY":"193.0552","PERIOD":"91.924","RA_OF_ASC_NODE":"169.0179","SEMIMAJOR_AXIS":"6747.027","SITE":"AFETR","OBJECT_ID":"2022-029AV"},{"SEMIMAJOR_AXIS":"6747.054","SITE":"AFETR","OBJECT_ID":"2022-029AW","PERIOD":"91.924","MEAN_ANOMALY":"183.7821","RA_OF_ASC_NODE":"169.0121","BSTAR":"-0.00731730000000","COUNTRY_CODE":"US","ELEMENT_SET_NO":"999","OBJECT_NAME":"STARLINK-3718","DECAY_DATE":null,"INCLINATION":"53.2174","PERIAPSIS":"368.101","OBJECT_TYPE":"PAYLOAD","MEAN_MOTION":"15.66503810","ECCENTRICITY":"0.00012130","ARG_OF_PERICENTER":"67.3607","MEAN_MOTION_DOT":"-0.00713859","LAUNCH_DATE":"2022-03-19","TLE_LINE2":"2 52132  53.2174 169.0121 0001213  67.3607 183.7821 15.66503810  1302","FILE":"3464394","EPOCH":"2022-05-25T22:00:00.999936","MEAN_MOTION_DDOT":"0.0000000000000","CLASSIFICATION_TYPE":"U","MEAN_ELEMENT_THEORY":"SGP4","REF_FRAME":"TEME","REV_AT_EPOCH":"130","EPHEMERIS_TYPE":"0","RCS_SIZE":"LARGE","APOAPSIS":"369.738","TLE_LINE1":"1 52132U 22029AW  22145.91667824 -.00713859  00000-0 -73173-2 0  9993","CENTER_NAME":"EARTH","GP_ID":"204541060","TIME_SYSTEM":"UTC","NORAD_CAT_ID":"52132"},{"EPOCH":"2022-05-25T22:00:00.999936","FILE":"3464394","EPHEMERIS_TYPE":"0","APOAPSIS":"369.716","RCS_SIZE":"LARGE","REV_AT_EPOCH":"130","MEAN_ELEMENT_THEORY":"SGP4","REF_FRAME":"TEME","MEAN_MOTION_DDOT":"0.0000000000000","CLASSIFICATION_TYPE":"U","GP_ID":"204540831","TLE_LINE1":"1 52133U 22029AX  22145.91667824 -.00713897  00000-0 -73119-2 0  9996","CENTER_NAME":"EARTH","NORAD_CAT_ID":"52133","TIME_SYSTEM":"UTC","SITE":"AFETR","OBJECT_ID":"2022-029AX","SEMIMAJOR_AXIS":"6746.999","COUNTRY_CODE":"US","BSTAR":"-0.00731190000000","PERIOD":"91.923","RA_OF_ASC_NODE":"169.0240","MEAN_ANOMALY":"193.2872","OBJECT_TYPE":"PAYLOAD","INCLINATION":"53.2175","PERIAPSIS":"368.012","OBJECT_NAME":"STARLINK-3707","DECAY_DATE":null,"ELEMENT_SET_NO":"999","TLE_LINE2":"2 52133  53.2175 169.0240 0001263  60.4395 193.2872 15.66523012  1307","LAUNCH_DATE":"2022-03-19","ARG_OF_PERICENTER":"60.4395","ECCENTRICITY":"0.00012630","MEAN_MOTION_DOT":"-0.00713897","MEAN_MOTION":"15.66523012"}];
